COMMENT,ORIGINATOR,NORAD_CAT_ID,OBJECT_NAME,OBJECT_TYPE,CLASSIFICATION_TYPE,INTLDES,EPOCH,EPOCH_MICROSECONDS,MEAN_MOTION,ECCENTRICITY,INCLINATION,RA_OF_ASC_NODE,ARG_OF_PERICENTER,MEAN_ANOMALY,EPHEMERIS_TYPE,ELEMENT_SET_NO,REV_AT_EPOCH,BSTAR,MEAN_MOTION_DOT,MEAN_MOTION_DDOT,FILE,TLE_LINE0,TLE_LINE1,TLE_LINE2,OBJECT_ID,OBJECT_NUMBER,SEMIMAJOR_AXIS,PERIOD,APOGEE,PERIGEE,DECAYED
"GENERATED VIA SPACETRACK.ORG API","18 SPCS","53903","STARLINK-5022","PAYLOAD","U","22119T","2023-04-16 04:52:50","367072","15.08846055","0.0001096","53.2179","35.5255","96.6561","263.4556","0","999","3189","-0.000055931","-0.00001178","0","3888626","0 STARLINK-5022","1 53903U 22119T   23106.20336073 -.00001178  00000-0 -55931-4 0  9997","2 53903  53.2179  35.5255 0001096  96.6561 263.4556 15.08846055 31897","2022-119T","53903","6917.862","95.437","540.485","538.969","0"
"GENERATED VIA SPACETRACK.ORG API","18 SPCS","53903","STARLINK-5022","PAYLOAD","U","22119T","2023-04-17 04:43:37","69248","15.08850985","0.0001247","53.2185","31.0641","93.1667","266.9468","0","999","3204","0.000039133","0.00000335","0","3889215","0 STARLINK-5022","1 53903U 22119T   23107.19695682  .00000335  00000-0  39133-4 0  9998","2 53903  53.2185  31.0641 0001247  93.1667 266.9468 15.08850985 32046","2022-119T","53903","6917.847","95.437","540.574","538.849","0"
"GENERATED VIA SPACETRACK.ORG API","18 SPCS","53903","STARLINK-5022","PAYLOAD","U","22119T","2023-04-18 01:23:38","486976","15.08840655","0.0000801","53.2177","27.2013","78.6168","281.4914","0","999","3175","0.000047144","0.00000463","0","3889413","0 STARLINK-5022","1 53903U 22119T   23108.05808434  .00000463  00000-0  47144-4 0  9998","2 53903  53.2177  27.2013 0000801  78.6168 281.4914 15.08840655 31754","2022-119T","53903","6917.878","95.438","540.298","539.189","0"
"GENERATED VIA SPACETRACK.ORG API","18 SPCS","53903","STARLINK-5022","PAYLOAD","U","22119T","2023-04-18 04:34:24","364992","15.08845945","0.000104","53.2188","26.6053","87.2046","272.9065","0","999","3177","0.00010824","0.00001436","0","3889661","0 STARLINK-5022","1 53903U 22119T   23108.19055978  .00001436  00000-0  10824-3 0  9995","2 53903  53.2188  26.6053 0001040  87.2046 272.9065 15.08845945 31771","2022-119T","53903","6917.862","95.437","540.447","539.008","0"
"GENERATED VIA SPACETRACK.ORG API","18 SPCS","53903","STARLINK-5022","PAYLOAD","U","22119T","2023-04-18 04:34:24","364992","15.08845945","0.000104","53.2188","26.6053","87.2046","272.9065","0","999","3219","0.00010824","0.00001436","0","3889684","0 STARLINK-5022","1 53903U 22119T   23108.19055978  .00001436  00000-0  10824-3 0  9995","2 53903  53.2188  26.6053 0001040  87.2046 272.9065 15.08845945 32198","2022-119T","53903","6917.862","95.437","540.447","539.008","0"
"GENERATED VIA SPACETRACK.ORG API","18 SPCS","53903","STARLINK-5022","PAYLOAD","U","22119T","2023-04-18 18:52:53","570496","15.08837206","0.000099","53.2181","23.9286","100.544","259.5664","0","999","3186","-0.000051788","-0.00001112","0","3889842","0 STARLINK-5022","1 53903U 22119T   23108.78673114 -.00001112  00000-0 -51788-4 0  9996","2 53903  53.2181  23.9286 0000990 100.5440 259.5664 15.08837206 31869","2022-119T","53903","6917.889","95.438","540.439","539.069","0"
"GENERATED VIA SPACETRACK.ORG API","18 SPCS","53903","STARLINK-5022","PAYLOAD","U","22119T","2023-04-18 18:52:53","570496","15.08837206","0.000099","53.2181","23.9286","100.544","259.5664","0","999","3228","-0.000051788","-0.00001112","0","3889987","0 STARLINK-5022","1 53903U 22119T   23108.78673114 -.00001112  00000-0 -51788-4 0  9996","2 53903  53.2181  23.9286 0000990 100.5440 259.5664 15.08837206 32286","2022-119T","53903","6917.889","95.438","540.439","539.069","0"
"GENERATED VIA SPACETRACK.ORG API","18 SPCS","53903","STARLINK-5022","PAYLOAD","U","22119T","2023-04-19 02:49:48","909216","15.08843395","0.0000894","53.2179","22.4434","75.8481","284.261","0","999","3233","0.0000036304","-0.0000023","0","3890383","0 STARLINK-5022","1 53903U 22119T   23109.11792719 -.00000230  00000-0  36304-5 0  9994","2 53903  53.2179  22.4434 0000894  75.8481 284.2610 15.08843395 32332","2022-119T","53903","6917.870","95.437","540.353","539.117","0"
"GENERATED VIA SPACETRACK.ORG API","18 SPCS","53903","STARLINK-5022","PAYLOAD","U","22119T","2023-04-20 04:15:58","819104","15.08848531","0.0000776","53.2188","17.6868","79.0737","281.0343","0","999","3249","0.000094296","0.00001214","0","3890827","0 STARLINK-5022","1 53903U 22119T   23110.17776411  .00001214  00000-0  94296-4 0  9998","2 53903  53.2188  17.6868 0000776  79.0737 281.0343 15.08848531 32490","2022-119T","53903","6917.854","95.437","540.256","539.182","0"
"GENERATED VIA SPACETRACK.ORG API","18 SPCS","53903","STARLINK-5022","PAYLOAD","U","22119T","2023-04-20 04:15:58","819104","15.08848531","0.0000776","53.2188","17.6868","79.0737","281.0343","0","999","3207","0.000094296","0.00001214","0","3890856","0 STARLINK-5022","1 53903U 22119T   23110.17776411  .00001214  00000-0  94296-4 0  9998","2 53903  53.2188  17.6868 0000776  79.0737 281.0343 15.08848531 32074","2022-119T","53903","6917.854","95.437","540.256","539.182","0"
"GENERATED VIA SPACETRACK.ORG API","18 SPCS","53903","STARLINK-5022","PAYLOAD","U","22119T","2023-04-21 04:06:47","193984","15.08831925","0.0001185","53.2179","13.2245","90.5156","269.5972","0","999","3222","0.000022698","0.00000073","0","3891138","0 STARLINK-5022","1 53903U 22119T   23111.17137956  .00000073  00000-0  22698-4 0  9993","2 53903  53.2179  13.2245 0001185  90.5156 269.5972 15.08831925 32228","2022-119T","53903","6917.905","95.438","540.590","538.950","0"
"GENERATED VIA SPACETRACK.ORG API","18 SPCS","53903","STARLINK-5022","PAYLOAD","U","22119T","2023-04-21 04:06:47","193984","15.08831925","0.0001185","53.2179","13.2245","90.5156","269.5972","0","999","3264","0.000022698","0.00000073","0","3891529","0 STARLINK-5022","1 53903U 22119T   23111.17137956  .00000073  00000-0  22698-4 0  9993","2 53903  53.2179  13.2245 0001185  90.5156 269.5972 15.08831925 32644","2022-119T","53903","6917.905","95.438","540.590","538.950","0"
"GENERATED VIA SPACETRACK.ORG API","18 SPCS","53903","STARLINK-5022","PAYLOAD","U","22119T","2023-04-21 18:25:14","758752","15.08850474","0.0000934","53.2173","10.5495","126.4765","233.6313","0","999","3273","-0.000013166","-0.00000497","0","3891716","0 STARLINK-5022","1 53903U 22119T   23111.76753193 -.00000497  00000-0 -13166-4 0  9997","2 53903  53.2173  10.5495 0000934 126.4765 233.6313 15.08850474 32732","2022-119T","53903","6917.848","95.437","540.360","539.067","0"
"GENERATED VIA SPACETRACK.ORG API","18 SPCS","53903","STARLINK-5022","PAYLOAD","U","22119T","2023-04-22 02:22:09","309504","15.08861387","0.0000761","53.2177","9.0615","105.3572","254.7504","0","999","3236","0.00013139","0.00001805","0","3891741","0 STARLINK-5022","1 53903U 22119T   23112.09871886  .00001805  00000-0  13139-3 0  9995","2 53903  53.2177   9.0615 0000761 105.3572 254.7504 15.08861387 32363","2022-119T","53903","6917.815","95.436","540.206","539.154","0"
"GENERATED VIA SPACETRACK.ORG API","18 SPCS","53903","STARLINK-5022","PAYLOAD","U","22119T","2023-04-22 02:22:09","309504","15.08861387","0.0000761","53.2177","9.0615","105.3572","254.7504","0","999","3278","0.00013139","0.00001805","0","3892071","0 STARLINK-5022","1 53903U 22119T   23112.09871886  .00001805  00000-0  13139-3 0  9995","2 53903  53.2177   9.0615 0000761 105.3572 254.7504 15.08861387 32789","2022-119T","53903","6917.815","95.436","540.206","539.154","0"
"GENERATED VIA SPACETRACK.ORG API","18 SPCS","53903","STARLINK-5022","PAYLOAD","U","22119T","2023-04-22 23:02:11","107392","15.08844662","0.0000939","53.2167","5.1958","105.0003","255.1093","0","999","3291","0.00011222","0.00001499","0","3892285","0 STARLINK-5022","1 53903U 22119T   23112.95985078  .00001499  00000-0  11222-3 0  9999","2 53903  53.2167   5.1958 0000939 105.0003 255.1093 15.08844662 32918","2022-119T","53903","6917.866","95.437","540.381","539.082","0"
"GENERATED VIA SPACETRACK.ORG API","18 SPCS","53903","STARLINK-5022","PAYLOAD","U","22119T","2023-04-23 00:37:34","180320","15.08846935","0.0000872","53.2178","4.8991","96.6625","263.4466","0","999","3292","0.00013058","0.00001791","0","3892688","0 STARLINK-5022","1 53903U 22119T   23113.02609005  .00001791  00000-0  13058-3 0  9995","2 53903  53.2178   4.8991 0000872  96.6625 263.4466 15.08846935 32926","2022-119T","53903","6917.859","95.437","540.327","539.121","0"
"GENERATED VIA SPACETRACK.ORG API","18 SPCS","53903","STARLINK-5022","PAYLOAD","U","22119T","2023-04-23 16:31:25","997376","15.08842402","0.0001162","53.2198","1.9271","94.0432","266.0693","0","999","3302","0.000033465","0.00000245","0","3892831","0 STARLINK-5022","1 53903U 22119T   23113.68849534  .00000245  00000-0  33465-4 0  9998","2 53903  53.2198   1.9271 0001162  94.0432 266.0693 15.08842402 33026","2022-119T","53903","6917.873","95.437","540.542","538.934","0"
"GENERATED VIA SPACETRACK.ORG API","18 SPCS","53903","STARLINK-5022","PAYLOAD","U","22119T","2023-04-24 02:03:42","948000","15.08866945","0.0001006","53.2186","0.1419","85.228","274.8827","0","999","3266","0.00013672","0.0000189","0","3892866","0 STARLINK-5022","1 53903U 22119T   23114.08591375  .00001890  00000-0  13672-3 0  9994","2 53903  53.2186   0.1419 0001006  85.2280 274.8827 15.08866945 32661","2022-119T","53903","6917.798","95.436","540.359","538.967","0"
"GENERATED VIA SPACETRACK.ORG API","18 SPCS","53903","STARLINK-5022","PAYLOAD","U","22119T","2023-04-24 02:03:42","948000","15.08866945","0.0001006","53.2186","0.1419","85.228","274.8827","0","999","3308","0.00013672","0.0000189","0","3893330","0 STARLINK-5022","1 53903U 22119T   23114.08591375  .00001890  00000-0  13672-3 0  9994","2 53903  53.2186   0.1419 0001006  85.2280 274.8827 15.08866945 33088","2022-119T","53903","6917.798","95.436","540.359","538.967","0"
